OBJECT_NAME,OBJECT_ID,EPOCH,MEAN_MOTION,ECCENTRICITY,INCLINATION,RA_OF_ASC_NODE,ARG_OF_PERICENTER,MEAN_ANOMALY,EPHEMERIS_TYPE,CLASSIFICATION_TYPE,NORAD_CAT_ID,ELEMENT_SET_NO,REV_AT_EPOCH,BSTAR,MEAN_MOTION_DOT,MEAN_MOTION_DDOT
STARLINK-36410,2026-003D,2026-06-27T02:36:38.020896,15.27578640,.00012815,42.9985,329.5214,269.8975,90.1730,0,U,67337,999,2555,.85919234E-3,.23455E-3,0
STARLINK-36413,2026-003E,2026-06-26T18:34:45.002208,15.27589027,.00016591,42.9995,331.3080,271.2903,88.7759,0,U,67338,999,2550,.70763818E-3,.19267E-3,0
STARLINK-36451,2026-003F,2026-06-26T19:48:32.435424,15.27598953,.00018264,43.0032,330.8313,278.5589,81.5056,0,U,67339,999,2551,.10858033E-2,.29755E-3,0
STARLINK-36339,2026-003G,2026-06-27T03:28:14.182176,15.27573926,.00016108,43.0030,328.9249,277.0332,83.0336,0,U,67340,999,2556,.61191248E-3,.16611E-3,0
STARLINK-36453,2026-003H,2026-06-27T03:22:40.745568,15.27573054,.00017588,43.0025,328.8963,260.6837,99.3816,0,U,67341,999,2556,.6494785E-3,.17649E-3,0
STARLINK-36432,2026-003J,2026-06-27T02:51:13.760064,15.27575196,.00014555,43.0009,328.7253,268.0870,91.9815,0,U,67342,999,2556,.68429366E-3,.18613E-3,0
STARLINK-36458,2026-003K,2026-06-27T03:13:25.642848,15.27571830,.00016265,43.0032,328.8452,262.6433,97.4234,0,U,67343,999,2556,.60683528E-3,.1647E-3,0
STARLINK-36422,2026-003L,2026-06-27T02:56:47.381568,15.27599741,.00011888,42.9999,328.7555,291.5718,68.5007,0,U,67344,999,2556,.92360727E-3,.25256E-3,0
STARLINK-35676,2026-003M,2026-06-26T19:17:05.779968,15.27557066,.00014176,43.0023,330.6624,282.0055,78.0638,0,U,67345,999,2551,.78182904E-3,.21299E-3,0
STARLINK-36472,2026-003N,2026-06-26T20:05:12.437664,15.27578566,.00017616,42.9999,330.9194,276.0220,84.0431,0,U,67346,999,2550,.97404596E-3,.26638E-3,0
STARLINK-36420,2026-003P,2026-06-26T19:50:24.095328,15.27577358,.00017457,43.0029,330.8389,279.4131,80.6523,0,U,67347,999,2551,.58764877E-3,.15942E-3,0
STARLINK-36467,2026-003Q,2026-06-26T19:55:57.363456,15.27577289,.0001957,43.0028,330.8676,280.4178,79.6453,0,U,67348,999,2551,.10026003E-2,.27428E-3,0
STARLINK-36457,2026-003R,2026-06-26T19:33:44.707392,15.27573690,.00017296,43.0037,330.7504,271.5997,88.4657,0,U,67349,999,2551,.6586536E-3,.17903E-3,0
STARLINK-36475,2026-003S,2026-06-27T03:04:10.579872,15.27569486,.00014082,43.0019,328.7947,274.9441,85.1250,0,U,67350,999,2556,.57595194E-3,.15615E-3,0
STARLINK-36478,2026-003T,2026-06-27T02:53:04.088544,15.27582432,.00020596,43.0011,328.7336,265.0362,95.0255,0,U,67351,999,2556,.64477172E-3,.17524E-3,0
STARLINK-36479,2026-003U,2026-06-27T02:43:49.520640,15.27566873,.00014101,43.0010,328.6860,269.6131,90.4559,0,U,67352,999,2556,.66666152E-3,.18121E-3,0
STARLINK-36474,2026-003V,2026-06-27T02:38:29.281632,15.27577136,.00015828,43.0017,329.5263,284.8659,75.2017,0,U,67353,999,2555,.10446486E-2,.28593E-3,0
STARLINK-36448,2026-003W,2026-06-27T03:35:37.861728,15.27572527,.00019449,43.0033,328.9594,270.5803,89.4825,0,U,67354,999,2556,.66652435E-3,.1812E-3,0
STARLINK-36477,2026-003X,2026-06-27T02:32:56.302944,15.27577792,.00015486,42.9986,329.4982,283.1593,76.9086,0,U,67355,999,2555,.10694264E-2,.29281E-3,0
STARLINK-36429,2026-003Y,2026-06-26T20:10:45.132960,15.27582707,.00014889,43.0019,330.9447,264.7820,95.2862,0,U,67356,999,2551,.69953835E-3,.19039E-3,0
STARLINK-36456,2026-003Z,2026-06-27T03:30:04.715424,15.27577075,.00019621,43.0020,328.9311,268.8517,91.2110,0,U,67357,999,2556,.75571641E-3,.2059E-3,0
STARLINK-36466,2026-003AA,2026-06-27T02:58:38.017632,15.27577770,.00007827,42.9983,328.7625,34.7480,325.3423,0,U,67358,999,2556,.80700873E-3,.2201E-3,0
STARLINK-36499,2026-003AB,2026-06-27T02:40:20.246880,15.27577194,.00016568,42.9983,329.5345,283.5744,76.4923,0,U,67359,999,2555,.89867574E-3,.24548E-3,0
STARLINK-36469,2026-003AC,2026-06-27T02:34:47.275968,15.27576207,.00016367,43.0000,329.5073,281.4969,78.5699,0,U,67360,999,2555,.89734003E-3,.2451E-3,0
STARLINK-35306,2026-003AD,2026-06-27T03:20:49.929792,15.27573256,.00016803,43.0015,328.8801,273.1797,86.8862,0,U,67361,999,2556,.7171357E-3,.1952E-3,0
STARLINK-36428,2026-003AE,2026-06-26T19:26:21.022656,15.27557994,.00012113,43.0026,330.7073,284.5652,75.5065,0,U,67362,999,2551,.60257717E-3,.16345E-3,0
STARLINK-36484,2026-005A,2026-06-27T04:06:49.729824,15.27573430,.00016153,43.0025,339.4073,273.9849,86.0818,0,U,67404,999,2544,.71539941E-3,.19472E-3,0
STARLINK-36452,2026-005B,2026-06-27T03:59:25.152576,15.27578618,.00013749,43.0013,339.3645,262.4997,97.5699,0,U,67405,999,2544,.85833088E-3,.23431E-3,0
STARLINK-36409,2026-005C,2026-06-27T03:18:55.705536,15.27580808,.00015967,43.0012,340.0195,281.6079,78.4593,0,U,67406,999,2543,.73092074E-3,.19906E-3,0
STARLINK-36510,2026-005D,2026-06-26T20:53:02.774400,15.27574123,.0001647,43.0017,341.4424,278.7013,81.3652,0,U,67407,999,2539,.36509E-3,.9796E-4,0
