STARLINK-36410          
1 67337U 26003D   26178.10877339  .00023455  00000+0  85919-3 0  9992
2 67337  42.9985 329.5214 0001281 269.8975  90.1730 15.27578640 25551
STARLINK-36413          
1 67338U 26003E   26177.77413197  .00019267  00000+0  70764-3 0  9991
2 67338  42.9995 331.3080 0001659 271.2903  88.7759 15.27589027 25502
STARLINK-36451          
1 67339U 26003F   26177.82537541  .00029755  00000+0  10858-2 0  9998
2 67339  43.0032 330.8313 0001826 278.5589  81.5056 15.27598953 25516
STARLINK-36339          
1 67340U 26003G   26178.14460859  .00016611  00000+0  61191-3 0  9997
2 67340  43.0030 328.9249 0001610 277.0332  83.0336 15.27573926 25569
STARLINK-36453          
1 67341U 26003H   26178.14074937  .00017649  00000+0  64948-3 0  9991
2 67341  43.0025 328.8963 0001758 260.6837  99.3816 15.27573054 25562
STARLINK-36432          
1 67342U 26003J   26178.11890926  .00018613  00000+0  68429-3 0  9993
2 67342  43.0009 328.7253 0001455 268.0870  91.9815 15.27575196 25565
STARLINK-36458          
1 67343U 26003K   26178.13432457  .00016470  00000+0  60684-3 0  9991
2 67343  43.0032 328.8452 0001626 262.6433  97.4234 15.27571830 25566
STARLINK-36422          
1 67344U 26003L   26178.12277062  .00025256  00000+0  92361-3 0  9999
2 67344  42.9999 328.7555 0001188 291.5718  68.5007 15.27599741 25568
STARLINK-35676          
1 67345U 26003M   26177.80353912  .00021299  00000+0  78183-3 0  9992
2 67345  43.0023 330.6624 0001417 282.0055  78.0638 15.27557066 25517
STARLINK-36472          
1 67346U 26003N   26177.83694951  .00026638  00000+0  97405-3 0  9997
2 67346  42.9999 330.9194 0001761 276.0220  84.0431 15.27578566 25507
STARLINK-36420          
1 67347U 26003P   26177.82666777  .00015942  00000+0  58765-3 0  9994
2 67347  43.0029 330.8389 0001745 279.4131  80.6523 15.27577358 25512
STARLINK-36467          
1 67348U 26003Q   26177.83052504  .00027428  00000+0  10026-2 0  9992
2 67348  43.0028 330.8676 0001957 280.4178  79.6453 15.27577289 25512
STARLINK-36457          
1 67349U 26003R   26177.81510078  .00017903  00000+0  65865-3 0  9995
2 67349  43.0037 330.7504 0001729 271.5997  88.4657 15.27573690 25515
STARLINK-36475          
1 67350U 26003S   26178.12790023  .00015615  00000+0  57595-3 0  9991
2 67350  43.0019 328.7947 0001408 274.9441  85.1250 15.27569486 25566
STARLINK-36478          
1 67351U 26003T   26178.12018621  .00017524  00000+0  64477-3 0  9997
2 67351  43.0011 328.7336 0002059 265.0362  95.0255 15.27582432 25568
STARLINK-36479          
1 67352U 26003U   26178.11376760  .00018121  00000+0  66666-3 0  9994
2 67352  43.0010 328.6860 0001410 269.6131  90.4559 15.27566873 25560
STARLINK-36474          
1 67353U 26003V   26178.11006113  .00028593  00000+0  10446-2 0  9995
2 67353  43.0017 329.5263 0001582 284.8659  75.2017 15.27577136 25552
STARLINK-36448          
1 67354U 26003W   26178.14974377  .00018120  00000+0  66652-3 0  9991
2 67354  43.0033 328.9594 0001944 270.5803  89.4825 15.27572527 25560
STARLINK-36477          
1 67355U 26003X   26178.10620721  .00029281  00000+0  10694-2 0  9993
2 67355  42.9986 329.4982 0001548 283.1593  76.9086 15.27577792 25557
STARLINK-36429          
1 67356U 26003Y   26177.84080015  .00019039  00000+0  69954-3 0  9994
2 67356  43.0019 330.9447 0001488 264.7820  95.2862 15.27582707 25515
STARLINK-36456          
1 67357U 26003Z   26178.14588791  .00020590  00000+0  75572-3 0  9990
2 67357  43.0020 328.9311 0001962 268.8517  91.2110 15.27577075 25569
STARLINK-36466          
1 67358U 26003AA  26178.12405113  .00022010  00000+0  80701-3 0  9994
2 67358  42.9983 328.7625 0000782  34.7480 325.3423 15.27577770 25560
STARLINK-36499          
1 67359U 26003AB  26178.11134545  .00024548  00000+0  89868-3 0  9993
2 67359  42.9983 329.5345 0001656 283.5744  76.4923 15.27577194 25555
STARLINK-36469          
1 67360U 26003AC  26178.10749162  .00024510  00000+0  89734-3 0  9992
2 67360  43.0000 329.5073 0001636 281.4969  78.5699 15.27576207 25558
STARLINK-35306          
1 67361U 26003AD  26178.13946678  .00019520  00000+0  71714-3 0  9991
2 67361  43.0015 328.8801 0001680 273.1797  86.8862 15.27573256 25568
STARLINK-36428          
1 67362U 26003AE  26177.80996554  .00016345  00000+0  60258-3 0  9996
2 67362  43.0026 330.7073 0001211 284.5652  75.5065 15.27557994 25516
STARLINK-36484          
1 67404U 26005A   26178.17140891  .00019472  00000+0  71540-3 0  9991
2 67404  43.0025 339.4073 0001615 273.9849  86.0818 15.27573430 25444
STARLINK-36452          
1 67405U 26005B   26178.16626334  .00023431  00000+0  85833-3 0  9992
2 67405  43.0013 339.3645 0001374 262.4997  97.5699 15.27578618 25442
STARLINK-36409          
1 67406U 26005C   26178.13814474  .00019906  00000+0  73092-3 0  9990
2 67406  43.0012 340.0195 0001596 281.6079  78.4593 15.27580808 25435
STARLINK-36510          
1 67407U 26005D   26177.87017100  .00009796  00000+0  36509-3 0  9990
2 67407  43.0017 341.4424 0001647 278.7013  81.3652 15.27574123 25390
